ONEWEB-0674             
1 55833U 23029AP  24227.59335890  .00000099  00000+0  23160-3 0  9991
2 55833  87.8918  63.3141 0001872  68.9150 291.2180 13.14502456 71183
ONEWEB-0675             
1 55834U 23029AQ  24227.62207869  .00000155  00000+0  35399-3 0  9990
2 55834  87.9105  78.5913 0001830  97.2843 262.8498 13.19727645 70343
ONEWEB-0537             
1 56046U 23043A   24227.60945895 -.00000027  00000+0 -10551-3 0  9991
2 56046  87.9145   2.4769 0002006 104.9679 255.1674 13.16593225 70597
ONEWEB-0538             
1 56047U 23043B   24227.45113371 -.00000143  00000+0 -40697-3 0  9994
2 56047  87.9144   2.5283 0001683 107.4653 252.6662 13.16594647 70586
ONEWEB-0547             
1 56049U 23043D   24227.44382238  .00000145  00000+0  31898-3 0  9998
2 56049  87.9311  17.7093 0001685 102.8531 257.2791 13.21828309 69489
ONEWEB-0548             
1 56050U 23043E   24227.61579587  .00000172  00000+0  41665-3 0  9997
2 56050  87.9144   2.5031 0001881  79.3327 280.8016 13.16595293 70591
